NORAD_CAT_ID,OBJECT_NAME,OBJECT_TYPE,EPOCH,MEAN_MOTION,ECCENTRICITY,INCLINATION,RA_OF_ASC_NODE,ARG_OF_PERICENTER,MEAN_ANOMALY,BSTAR,MEAN_MOTION_DOT,MEAN_MOTION_DDOT,TLE_LINE0,TLE_LINE1,TLE_LINE2,SEMIMAJOR_AXIS,PERIOD,APOGEE,PERIGEE,DECAYED
54088.0,STARLINK-5153,PAYLOAD,2024-02-05 11:29:15,15.08849609,0.0001405,53.2147,160.4147,72.9972,287.1174,-9.6194e-05,-1.819e-05,0.0,0 STARLINK-5153,1 54088U 22136AP  24036.47864921 -.00001819  00000-0 -96194-4 0  9999,2 54088  53.2147 160.4147 0001405  72.9972 287.1174 15.08849609 72232,6917.851,95.437,540.688,538.744,0.0
54088.0,STARLINK-5153,PAYLOAD,2024-02-05 14:40:01,15.08847012,0.0001215,53.2141,159.818,83.1356,276.9774,0.00022631,3.316e-05,0.0,0 STARLINK-5153,1 54088U 22136AP  24036.61113032  .00003316  00000-0  22631-3 0  9991,2 54088  53.2141 159.8180 0001215  83.1356 276.9774 15.08847012 71781,6917.859,95.437,540.564,538.883,0.0
54088.0,STARLINK-5153,PAYLOAD,2024-02-06 11:20:03,15.08827628,0.0001319,53.2155,155.9537,95.5885,264.5258,0.00056937,8.782e-05,0.0,0 STARLINK-5153,1 54088U 22136AP  24037.47226161  .00008782  00000-0  56937-3 0  9992,2 54088  53.2155 155.9537 0001319  95.5885 264.5258 15.08827628 72386,6917.918,95.438,540.696,538.871,0.0
54088.0,STARLINK-5153,PAYLOAD,2024-02-06 12:55:25,15.08837103,0.0001374,53.2154,155.6561,91.6583,268.4567,0.00023583,3.467e-05,0.0,0 STARLINK-5153,1 54088U 22136AP  24037.53849515  .00003467  00000-0  23583-3 0  9999,2 54088  53.2154 155.6561 0001374  91.6583 268.4567 15.08837103 71926,6917.889,95.438,540.705,538.804,0.0
54088.0,STARLINK-5153,PAYLOAD,2024-02-07 14:21:35,15.08843212,0.0001387,53.2162,150.9014,83.2227,276.8923,-4.1812e-06,-3.54e-06,0.0,0 STARLINK-5153,1 54088U 22136AP  24038.59833308 -.00000354  00000-0 -41812-5 0  9990,2 54088  53.2162 150.9014 0001387  83.2227 276.8923 15.08843212 72087,6917.871,95.437,540.695,538.776,0.0
54088.0,STARLINK-5153,PAYLOAD,2024-02-08 11:01:37,15.08832932,0.0001394,53.2167,147.0346,79.057,281.0579,0.00012702,1.734e-05,0.0,0 STARLINK-5153,1 54088U 22136AP  24039.45945800  .00001734  00000-0  12702-3 0  9992,2 54088  53.2167 147.0346 0001394  79.0570 281.0579 15.08832932 72687,6917.902,95.438,540.731,538.803,0.0
54088.0,STARLINK-5153,PAYLOAD,2024-02-08 12:37:00,15.08833156,0.0001452,53.2172,146.7379,83.0661,277.0497,0.00019355,2.793e-05,0.0,0 STARLINK-5153,1 54088U 22136AP  24039.52569607  .00002793  00000-0  19355-3 0  9994,2 54088  53.2172 146.7379 0001452  83.0661 277.0497 15.08833156 72229,6917.901,95.438,540.771,538.762,0.0
54088.0,STARLINK-5153,PAYLOAD,2024-02-09 14:03:10,15.08842635,0.0001592,53.217,141.9779,64.8861,295.2296,0.00010471,1.379e-05,0.0,0 STARLINK-5153,1 54088U 22136AP  24040.58553593  .00001379  00000-0  10471-3 0  9998,2 54088  53.2170 141.9779 0001592  64.8861 295.2296 15.08842635 72380,6917.872,95.437,540.839,538.636,0.0
54088.0,STARLINK-5153,PAYLOAD,2024-02-09 15:38:33,15.08845351,0.0001564,53.2173,141.6793,85.2079,274.9092,0.00013939,1.931e-05,0.0,0 STARLINK-5153,1 54088U 22136AP  24040.65177213  .00001931  00000-0  13939-3 0  9993,2 54088  53.2173 141.6793 0001564  85.2079 274.9092 15.08845351 72862,6917.864,95.437,540.811,538.647,0.0
54088.0,STARLINK-5153,PAYLOAD,2024-02-10 12:18:34,15.08839105,0.0001534,53.2176,137.8128,95.5011,264.6156,3.8211e-05,3.2e-06,0.0,0 STARLINK-5153,1 54088U 22136AP  24041.51290077  .00000320  00000-0  38211-4 0  9995,2 54088  53.2176 137.8128 0001534  95.5011 264.6156 15.08839105 72992,6917.883,95.438,540.809,538.687,0.0
54088.0,STARLINK-5153,PAYLOAD,2024-02-10 13:53:58,15.08839018,0.0001976,53.2183,137.5162,58.9893,301.1293,5.602e-05,6.03e-06,0.0,0 STARLINK-5153,1 54088U 22136AP  24041.57914377  .00000603  00000-0  56020-4 0  9999,2 54088  53.2183 137.5162 0001976  58.9893 301.1293 15.08839018 72538,6917.883,95.438,541.115,538.381,0.0
54088.0,STARLINK-5153,PAYLOAD,2024-02-10 15:29:21,15.0884077,0.000181,53.2178,137.2206,60.9951,299.1222,7.3531e-05,8.82e-06,0.0,0 STARLINK-5153,1 54088U 22136AP  24041.64538209  .00000882  00000-0  73531-4 0  9998,2 54088  53.2178 137.2206 0001810  60.9951 299.1222 15.08840770 72549,6917.878,95.438,540.995,538.491,0.0
54088.0,STARLINK-5153,PAYLOAD,2024-02-11 13:44:44,15.08850658,0.0001642,53.2173,133.0597,76.1671,283.9504,9.5383e-05,1.231e-05,0.0,0 STARLINK-5153,1 54088U 22136AP  24042.57273595  .00001231  00000-0  95383-4 0  9993,2 54088  53.2173 133.0597 0001642  76.1671 283.9504 15.08850658 72687,6917.848,95.437,540.849,538.577,0.0
54088.0,STARLINK-5153,PAYLOAD,2024-02-12 12:00:08,15.08851288,0.0001966,53.2159,128.8967,63.6658,296.4536,0.00020936,3.046e-05,0.0,0 STARLINK-5153,1 54088U 22136AP  24043.50009591  .00003046  00000-0  20936-3 0  9997,2 54088  53.2159 128.8967 0001966  63.6658 296.4536 15.08851288 72829,6917.846,95.437,541.071,538.351,0.0
54088.0,STARLINK-5153,PAYLOAD,2024-02-12 15:10:54,15.0885389,0.0001747,53.2156,128.3014,66.9628,293.1548,0.0002274,3.334e-05,0.0,0 STARLINK-5153,1 54088U 22136AP  24043.63257279  .00003334  00000-0  22740-3 0  9994,2 54088  53.2156 128.3014 0001747  66.9628 293.1548 15.08853890 73317,6917.838,95.437,540.911,538.494,0.0
54088.0,STARLINK-5153,PAYLOAD,2024-02-13 11:50:55,15.08834721,0.0001308,53.2156,124.4333,89.2975,270.8167,-0.00010123,-1.898e-05,0.0,0 STARLINK-5153,1 54088U 22136AP  24044.49370204 -.00001898  00000-0 -10123-3 0  9990,2 54088  53.2156 124.4333 0001308  89.2975 270.8167 15.08834721 73449,6917.897,95.438,540.666,538.857,0.0
54088.0,STARLINK-5153,PAYLOAD,2024-02-14 10:06:19,15.0884007,0.0001396,53.2157,120.2697,102.3269,257.788,3.6598e-05,2.95e-06,0.0,0 STARLINK-5153,1 54088U 22136AP  24045.42106288  .00000295  00000-0  36598-4 0  9996,2 54088  53.2157 120.2697 0001396 102.3269 257.7880 15.08840070 73111,6917.88,95.438,540.711,538.779,0.0
54088.0,STARLINK-5153,PAYLOAD,2024-02-15 11:32:29,15.08853604,0.000127,53.2162,115.5137,100.3787,259.7349,-0.00013016,-2.36e-05,0.0,0 STARLINK-5153,1 54088U 22136AP  24046.48089961 -.00002360  00000-0 -13016-3 0  9997,2 54088  53.2162 115.5137 0001270 100.3787 259.7349 15.08853604 73745,6917.839,95.437,540.582,538.825,0.0
54088.0,STARLINK-5153,PAYLOAD,2024-02-15 21:04:49,15.08846317,0.0001316,53.2159,113.73,95.7521,264.3622,0.00028253,4.212e-05,0.0,0 STARLINK-5153,1 54088U 22136AP  24046.87834593  .00004212  00000-0  28253-3 0  9994,2 54088  53.2159 113.7300 0001316  95.7521 264.3622 15.08846317 73331,6917.861,95.437,540.636,538.816,0.0
54088.0,STARLINK-5153,PAYLOAD,2024-02-16 12:58:40,15.08845771,0.000172,53.2164,110.7556,94.2207,265.8981,0.00015196,2.132e-05,0.0,0 STARLINK-5153,1 54088U 22136AP  24047.54074506  .00002132  00000-0  15196-3 0  9990,2 54088  53.2164 110.7556 0001720  94.2207 265.8981 15.08845771 73439,6917.863,95.437,540.918,538.538,0.0
54088.0,STARLINK-5153,PAYLOAD,2024-02-17 03:17:09,15.08835656,0.0001797,53.2158,108.0784,89.6535,270.4663,-6.3484e-05,-1.298e-05,0.0,0 STARLINK-5153,1 54088U 22136AP  24048.13691166 -.00001298  00000-0 -63484-4 0  9991,2 54088  53.2158 108.0784 0001797  89.6535 270.4663 15.08835656 73992,6917.894,95.438,541.002,538.516,0.0
54088.0,STARLINK-5153,PAYLOAD,2024-02-17 11:14:04,15.08836607,0.0001819,53.2174,106.5908,87.3995,272.7205,-7.3932e-06,-4.06e-06,0.0,0 STARLINK-5153,1 54088U 22136AP  24048.46811229 -.00000406  00000-0 -73932-5 0  9991,2 54088  53.2174 106.5908 0001819  87.3995 272.7205 15.08836607 73579,6917.891,95.438,541.014,538.497,0.0
54088.0,STARLINK-5153,PAYLOAD,2024-02-17 20:46:23,15.08842029,0.0001833,53.2177,104.807,86.1076,274.0126,5.7673e-05,6.3e-06,0.0,0 STARLINK-5153,1 54088U 22136AP  24048.86555073  .00000630  00000-0  57673-4 0  9997,2 54088  53.2177 104.8070 0001833  86.1076 274.0126 15.08842029 73635,6917.874,95.437,541.007,538.471,0.0
54088.0,STARLINK-5153,PAYLOAD,2024-02-18 11:04:51,15.08848631,0.0001793,53.2162,102.1295,85.6276,274.4921,0.00012372,1.682e-05,0.0,0 STARLINK-5153,1 54088U 22136AP  24049.46170776  .00001682  00000-0  12372-3 0  9991,2 54088  53.2162 102.1295 0001793  85.6276 274.4921 15.08848631 74194,6917.854,95.437,540.959,538.479,0.0
54088.0,STARLINK-5153,PAYLOAD,2024-02-18 12:40:14,15.08850556,0.000178,53.216,101.8316,85.1932,274.9264,0.00027261,4.054e-05,0.0,0 STARLINK-5153,1 54088U 22136AP  24049.52794713  .00004054  00000-0  27261-3 0  9990,2 54088  53.2160 101.8316 0001780  85.1932 274.9264 15.08850556 73735,6917.848,95.437,540.945,538.482,0.0
54088.0,STARLINK-5153,PAYLOAD,2024-02-18 20:37:10,15.08840028,0.0001905,53.2165,100.3452,88.9362,271.1848,0.00014642,2.043e-05,0.0,0 STARLINK-5153,1 54088U 22136AP  24049.85915243  .00002043  00000-0  14642-3 0  9994,2 54088  53.2165 100.3452 0001905  88.9362 271.1848 15.08840028 73787,6917.88,95.438,541.063,538.427,0.0
54088.0,STARLINK-5153,PAYLOAD,2024-02-19 02:58:43,15.08840805,0.000214,53.2163,99.1557,88.6632,271.4605,0.0001052,1.386e-05,0.0,0 STARLINK-5153,1 54088U 22136AP  24050.12411364  .00001386  00000-0  10520-3 0  9991,2 54088  53.2163  99.1557 0002140  88.6632 271.4605 15.08840805 74299,6917.878,95.438,541.223,538.263,0.0
54088.0,STARLINK-5153,PAYLOAD,2024-02-19 09:20:15,15.08838972,0.0001788,53.2168,97.966,91.5394,268.5803,5.5841e-05,6.01e-06,0.0,0 STARLINK-5153,1 54088U 22136AP  24050.38907346  .00000601  00000-0  55841-4 0  9994,2 54088  53.2168  97.9660 0001788  91.5394 268.5803 15.08838972 73861,6917.884,95.438,540.985,538.512,0.0
54088.0,STARLINK-5153,PAYLOAD,2024-02-19 20:27:58,15.08836684,0.0001745,53.2159,95.8866,88.6664,271.4528,2.2793e-05,7.5e-07,0.0,0 STARLINK-5153,1 54088U 22136AP  24050.85275547  .00000075  00000-0  22793-4 0  9992,2 54088  53.2159  95.8866 0001745  88.6664 271.4528 15.08836684 73939,6917.891,95.438,540.963,538.548,0.0
54088.0,STARLINK-5153,PAYLOAD,2024-02-20 09:11:03,15.08840697,0.0001572,53.2149,93.5068,91.5024,268.6148,0.0001038,1.364e-05,0.0,0 STARLINK-5153,1 54088U 22136AP  24051.38267483  .00001364  00000-0  10380-3 0  9991,2 54088  53.2149  93.5068 0001572  91.5024 268.6148 15.08840697 74484,6917.878,95.438,540.831,538.656,0.0
